{"type": "FeatureCollection", "features": [ {"type": "Feature", "properties": {"norad_id": 35442, "name": "COSMOS 2251 DEB", "group": "cosmos-2251-debris", "lat": 73.76651760011092, "lon": 175.51886447155204, "alt_km": 605.0113266664885, "timestamp": "2025-12-14T09:36:23.434147+00:00", "meta": {"OBJECT_NAME": "COSMOS 2251 DEB", "OBJECT_ID": "1993-036AKL", "EPOCH": "2025-12-13T13:48:26.485920", "MEAN_MOTION": 14.8449662, "ECCENTRICITY": 0.00037677, "INCLINATION": 74.026, "RA_OF_ASC_NODE": 97.4785, "ARG_OF_PERICENTER": 84.1617, "MEAN_ANOMALY": 275.9991, "EPHEMERIS_TYPE": 0, "CLASSIFICATION_TYPE": "U", "NORAD_CAT_ID": 35442, "ELEMENT_SET_NO": 999, "REV_AT_EPOCH": 87365, "BSTAR": 0.002674471, "MEAN_MOTION_DOT": 0.00022583, "MEAN_MOTION_DDOT": 0}, "tle": {"line1": "1 35442U 93036AKL 25347.57530655  .00022583  00000+0  26745-2 0  9991", "line2": "2 35442  74.0260  97.4785 0003767  84.1617 275.9991 14.84496620873654"}}, "geometry": {"type": "Point", "coordinates": [175.51886447155204, 73.76651760011092]}}, {"type": "Feature", "properties": {"norad_id": 35443, "name": "COSMOS 2251 DEB", "group": "cosmos-2251-debris", "lat": -11.870853161195775, "lon": 151.6945979256473, "alt_km": 574.1497795330897, "timestamp": "2025-12-14T09:36:23.434157+00:00", "meta": {"OBJECT_NAME": "COSMOS 2251 DEB", "OBJECT_ID": "1993-036AKM", "EPOCH": "2025-12-08T06:44:44.274336", "MEAN_MOTION": 14.96147372, "ECCENTRICITY": 0.00733753, "INCLINATION": 73.988, "RA_OF_ASC_NODE": 340.6328, "ARG_OF_PERICENTER": 123.8306, "MEAN_ANOMALY": 236.9892, "EPHEMERIS_TYPE": 0, "CLASSIFICATION_TYPE": "U", "NORAD_CAT_ID": 35443, "ELEMENT_SET_NO": 999, "REV_AT_EPOCH": 86811, "BSTAR": 0.0035457848, "MEAN_MOTION_DOT": 0.00042371, "MEAN_MOTION_DDOT": 0}, "tle": {"line1": "1 35443U 93036AKM 25342.28106799  .00042371  00000+0  35458-2 0  9991", "line2": "2 35443  73.9880 340.6328 0073375 123.8306 236.9892 14.96147372868117"}}, "geometry": {"type": "Point", "coordinates": [151.6945979256473, -11.870853161195775]}}, {"type": "Feature", "properties": {"norad_id": 35445, "name": "COSMOS 2251 DEB", "group": "cosmos-2251-debris", "lat": 2.1668075593913834, "lon": -62.53555417811476, "alt_km": 603.1969486021908, "timestamp": "2025-12-14T09:36:23.434167+00:00", "meta": {"OBJECT_NAME": "COSMOS 2251 DEB", "OBJECT_ID": "1993-036AKP", "EPOCH": "2025-12-09T14:24:43.017696", "MEAN_MOTION": 14.5903749, "ECCENTRICITY": 0.01436968, "INCLINATION": 74.0376, "RA_OF_ASC_NODE": 305.9887, "ARG_OF_PERICENTER": 33.7492, "MEAN_ANOMALY": 327.2717, "EPHEMERIS_TYPE": 0, "CLASSIFICATION_TYPE": "U", "NORAD_CAT_ID": 35445, "ELEMENT_SET_NO": 999, "REV_AT_EPOCH": 87283, "BSTAR": 0.0029213682, "MEAN_MOTION_DOT": 0.00015858, "MEAN_MOTION_DDOT": 0}, "tle": {"line1": "1 35445U 93036AKP 25343.60049789  .00015858  00000+0  29214-2 0  9998", "line2": "2 35445  74.0376 305.9887 0143696  33.7492 327.2717 14.59037490872836"}}, "geometry": {"type": "Point", "coordinates": [-62.53555417811476, 2.1668075593913834]}}, {"type": "Feature", "properties": {"norad_id": 35446, "name": "COSMOS 2251 DEB", "group": "cosmos-2251-debris", "lat": 10.904287422900685, "lon": -41.79889808612397, "alt_km": 686.0264618630936, "timestamp": "2025-12-14T09:36:23.434177+00:00", "meta": {"OBJECT_NAME": "COSMOS 2251 DEB", "OBJECT_ID": "1993-036AKQ", "EPOCH": "2025-12-13T15:23:54.502656", "MEAN_MOTION": 14.54630428, "ECCENTRICITY": 0.00744138, "INCLINATION": 74.0468, "RA_OF_ASC_NODE": 316.476, "ARG_OF_PERICENTER": 74.3768, "MEAN_ANOMALY": 286.5591, "EPHEMERIS_TYPE": 0, "CLASSIFICATION_TYPE": "U", "NORAD_CAT_ID": 35446, "ELEMENT_SET_NO": 999, "REV_AT_EPOCH": 88021, "BSTAR": 0.00016993643, "MEAN_MOTION_DOT": 7.24e-06, "MEAN_MOTION_DDOT": 0}, "tle": {"line1": "1 35446U 93036AKQ 25347.64160304  .00000724  00000+0  16994-3 0  9992", "line2": "2 35446  74.0468 316.4760 0074413  74.3768 286.5591 14.54630428880216"}}, "geometry": {"type": "Point", "coordinates": [-41.79889808612397, 10.904287422900685]}}, {"type": "Feature", "properties": {"norad_id": 35448, "name": "COSMOS 2251 DEB", "group": "cosmos-2251-debris", "lat": -46.42088231173862, "lon": -75.98929094130303, "alt_km": 711.7358652576213, "timestamp": "2025-12-14T09:36:23.434187+00:00", "meta": {"OBJECT_NAME": "COSMOS 2251 DEB", "OBJECT_ID": "1993-036AKS", "EPOCH": "2025-12-12T07:01:38.085024", "MEAN_MOTION": 14.54259096, "ECCENTRICITY": 0.00114375, "INCLINATION": 73.9043, "RA_OF_ASC_NODE": 90.3619, "ARG_OF_PERICENTER": 271.7905, "MEAN_ANOMALY": 88.1947, "EPHEMERIS_TYPE": 0, "CLASSIFICATION_TYPE": "U", "NORAD_CAT_ID": 35448, "ELEMENT_SET_NO": 999, "REV_AT_EPOCH": 87328, "BSTAR": 0.0017527146, "MEAN_MOTION_DOT": 7.415e-05, "MEAN_MOTION_DDOT": 0}, "tle": {"line1": "1 35448U 93036AKS 25346.29280191  .00007415  00000+0  17527-2 0  9997", "line2": "2 35448  73.9043  90.3619 0011437 271.7905  88.1947 14.54259096873287"}}, "geometry": {"type": "Point", "coordinates": [-75.98929094130303, -46.42088231173862]}}, {"type": "Feature", "properties": {"norad_id": 35451, "name": "COSMOS 2251 DEB", "group": "cosmos-2251-debris", "lat": 16.398393473224214, "lon": 103.94773497119611, "alt_km": 435.1445423195173, "timestamp": "2025-12-14T09:36:23.434197+00:00", "meta": {"OBJECT_NAME": "COSMOS 2251 DEB", "OBJECT_ID": "1993-036AKV", "EPOCH": "2025-12-12T07:30:05.032800", "MEAN_MOTION": 15.35535131, "ECCENTRICITY": 0.00410164, "INCLINATION": 73.9311, "RA_OF_ASC_NODE": 103.5905, "ARG_OF_PERICENTER": 349.7426, "MEAN_ANOMALY": 10.2937, "EPHEMERIS_TYPE": 0, "CLASSIFICATION_TYPE": "U", "NORAD_CAT_ID": 35451, "ELEMENT_SET_NO": 999, "REV_AT_EPOCH": 67399, "BSTAR": 0.0021824439, "MEAN_MOTION_DOT": 0.00078254, "MEAN_MOTION_DDOT": 0}, "tle": {"line1": "1 35451U 93036AKV 25346.31255825  .00078254  00000+0  21824-2 0  9994", "line2": "2 35451  73.9311 103.5905 0041016 349.7426  10.2937 15.35535131673992"}}, "geometry": {"type": "Point", "coordinates": [103.94773497119611, 16.398393473224214]}}, {"type": "Feature", "properties": {"norad_id": 35453, "name": "COSMOS 2251 DEB", "group": "cosmos-2251-debris", "lat": -5.236016957980231, "lon": -161.18530248366042, "alt_km": 728.6704587662198, "timestamp": "2025-12-14T09:36:23.434207+00:00", "meta": {"OBJECT_NAME": "COSMOS 2251 DEB", "OBJECT_ID": "1993-036AKX", "EPOCH": "2025-12-12T10:00:01.192608", "MEAN_MOTION": 14.37983532, "ECCENTRICITY": 0.00672601, "INCLINATION": 74.0093, "RA_OF_ASC_NODE": 20.9669, "ARG_OF_PERICENTER": 155.0047, "MEAN_ANOMALY": 205.439, "EPHEMERIS_TYPE": 0, "CLASSIFICATION_TYPE": "U", "NORAD_CAT_ID": 35453, "ELEMENT_SET_NO": 999, "REV_AT_EPOCH": 86214, "BSTAR": 0.0010887113, "MEAN_MOTION_DOT": 3.355e-05, "MEAN_MOTION_DDOT": 0}, "tle": {"line1": "1 35453U 93036AKX 25346.41668047  .00003355  00000+0  10887-2 0  9998", "line2": "2 35453  74.0093  20.9669 0067260 155.0047 205.4390 14.37983532862149"}}, "geometry": {"type": "Point", "coordinates": [-161.18530248366042, -5.236016957980231]}}, {"type": "Feature", "properties": {"norad_id": 35455, "name": "COSMOS 2251 DEB", "group": "cosmos-2251-debris", "lat": 66.75924509252981, "lon": 69.85742640583778, "alt_km": 698.5118639826997, "timestamp": "2025-12-14T09:36:23.434217+00:00", "meta": {"OBJECT_NAME": "COSMOS 2251 DEB", "OBJECT_ID": "1993-036AKZ", "EPOCH": "2025-12-13T06:37:06.846816", "MEAN_MOTION": 14.49420383, "ECCENTRICITY": 0.00991222, "INCLINATION": 74.0281, "RA_OF_ASC_NODE": 293.7971, "ARG_OF_PERICENTER": 37.1975, "MEAN_ANOMALY": 323.5997, "EPHEMERIS_TYPE": 0, "CLASSIFICATION_TYPE": "U", "NORAD_CAT_ID": 35455, "ELEMENT_SET_NO": 999, "REV_AT_EPOCH": 86551, "BSTAR": 0.0026550845, "MEAN_MOTION_DOT": 0.00010804, "MEAN_MOTION_DDOT": 0}, "tle": {"line1": "1 35455U 93036AKZ 25347.27577369  .00010804  00000+0  26551-2 0  9993", "line2": "2 35455  74.0281 293.7971 0099122  37.1975 323.5997 14.49420383865510"}}, "geometry": {"type": "Point", "coordinates": [69.85742640583778, 66.75924509252981]}}, {"type": "Feature", "properties": {"norad_id": 35456, "name": "COSMOS 2251 DEB", "group": "cosmos-2251-debris", "lat": -43.620866688900534, "lon": -49.83439856369651, "alt_km": 675.0382039241194, "timestamp": "2025-12-14T09:36:23.434228+00:00", "meta": {"OBJECT_NAME": "COSMOS 2251 DEB", "OBJECT_ID": "1993-036ALA", "EPOCH": "2025-12-13T01:31:56.417088", "MEAN_MOTION": 14.69439296, "ECCENTRICITY": 0.00660413, "INCLINATION": 73.9495, "RA_OF_ASC_NODE": 116.8436, "ARG_OF_PERICENTER": 326.4875, "MEAN_ANOMALY": 33.2124, "EPHEMERIS_TYPE": 0, "CLASSIFICATION_TYPE": "U", "NORAD_CAT_ID": 35456, "ELEMENT_SET_NO": 999, "REV_AT_EPOCH": 65880, "BSTAR": 0.0025474833, "MEAN_MOTION_DOT": 0.000156, "MEAN_MOTION_DDOT": 0}, "tle": {"line1": "1 35456U 93036ALA 25347.06384742  .00015600  00000+0  25475-2 0  9995", "line2": "2 35456  73.9495 116.8436 0066041 326.4875  33.2124 14.69439296658808"}}, "geometry": {"type": "Point", "coordinates": [-49.83439856369651, -43.620866688900534]}}, {"type": "Feature", "properties": {"norad_id": 35459, "name": "COSMOS 2251 DEB", "group": "cosmos-2251-debris", "lat": 53.99766819656192, "lon": -152.33002940696858, "alt_km": 758.2394200261351, "timestamp": "2025-12-14T09:36:23.434238+00:00", "meta": {"OBJECT_NAME": "COSMOS 2251 DEB", "OBJECT_ID": "1993-036ALD", "EPOCH": "2025-12-13T06:36:57.783456", "MEAN_MOTION": 14.37463066, "ECCENTRICITY": 0.00162707, "INCLINATION": 73.8693, "RA_OF_ASC_NODE": 186.288, "ARG_OF_PERICENTER": 133.9432, "MEAN_ANOMALY": 226.3067, "EPHEMERIS_TYPE": 0, "CLASSIFICATION_TYPE": "U", "NORAD_CAT_ID": 35459, "ELEMENT_SET_NO": 999, "REV_AT_EPOCH": 58369, "BSTAR": 0.00036578266, "MEAN_MOTION_DOT": 1.069e-05, "MEAN_MOTION_DDOT": 0}, "tle": {"line1": "1 35459U 93036ALD 25347.27566879  .00001069  00000+0  36578-3 0  9995", "line2": "2 35459  73.8693 186.2880 0016270 133.9432 226.3067 14.37463066583695"}}, "geometry": {"type": "Point", "coordinates": [-152.33002940696858, 53.99766819656192]}}]}